APRIZESAT 2             
1 28366U 04025A   24350.78647973  .00000451  00000+0  15358-3 0  9995
2 28366  98.0717 178.0792 0107481 105.7412 255.5661 14.37599875 72832
SAUDICOMSAT 1           
1 28369U 04025D   24350.70232459  .00001147  00000+0  27827-3 0  9996
2 28369  98.5564 335.7214 0031368 263.1028  96.6599 14.54616499 84369
SAUDICOMSAT 2           
1 28370U 04025E   24350.69022599  .00000789  00000+0  21526-3 0  9999
2 28370  98.6475 336.9151 0057070 119.7812 240.9074 14.49255565 80636
APRIZESAT 1             
1 28372U 04025G   24349.96673412  .00000909  00000+0  23824-3 0  9992
2 28372  98.6106 335.2954 0045602  26.4420 333.9087 14.51144276 82277
NANOSAT-1               
1 28493U 04049B   24350.71161862  .00002720  00000+0  38508-3 0  9996
2 28493  98.1626 106.1884 0003012 249.2185 110.8702 14.77920492 74369
SAUDICOMSAT 7           
1 31119U 07012C   24351.14270508  .00001515  00000+0  28694-3 0  9990
2 31119  98.3035 306.0540 0058225 113.4536 247.2802 14.64733190942219
SAUDICOMSAT 6           
1 31121U 07012E   24350.82913059  .00001426  00000+0  28865-3 0  9993
2 31121  98.3349 300.1827 0072175 233.9042 125.5461 14.61300002940051
SAUDICOMSAT 5           
1 31124U 07012H   24350.77065272  .00001953  00000+0  35405-3 0  9998
2 31124  98.2742 306.5826 0049898  52.0943 308.4757 14.66657203943152
SAUDICOMSAT 3           
1 31125U 07012J   24350.82119535  .00002479  00000+0  42720-3 0  9999
2 31125  98.2407 307.3032 0040236 347.7998  12.2229 14.68944134944261
SAUDICOMSAT 4           
1 31127U 07012L   24350.86369660  .00001339  00000+0  26233-3 0  9996
2 31127  98.3235 304.2781 0064931 170.4657 189.7794 14.63177926941155
APRIZESAT 4             
1 35684U 09041D   24351.13481612  .00001869  00000+0  23716-3 0  9996
2 35684  98.2128  42.9087 0043436 296.9145  62.7632 14.82356828830176
APRIZESAT 3             
1 35686U 09041F   24349.82603140  .00003636  00000+0  33997-3 0  9999
2 35686  98.1340 109.5409 0066775  79.4314 281.4417 14.93110438834301
AISSAT 1                
1 36797U 10035C   24350.87148778  .00005057  00000+0  48710-3 0  9994
2 36797  98.1587 219.1490 0011297  70.9953 289.2488 14.93374424782268
S-NET D                 
1 43186U 18014G   24350.99746457  .00009365  00000+0  60251-3 0  9990
2 43186  97.5773 249.9216 0011560 102.4414 257.8109 15.08548762375872
S-NET B                 
1 43187U 18014H   24351.00093934  .00009634  00000+0  61976-3 0  9993
2 43187  97.5779 249.8870 0012322  98.7216 261.5409 15.08534412375870
S-NET A                 
1 43188U 18014J   24350.00340384  .00009323  00000+0  59996-3 0  9991
2 43188  97.5786 249.0317 0012144 102.4955 257.7633 15.08533057375726
S-NET C                 
1 43189U 18014K   24350.67133417  .00009421  00000+0  60606-3 0  9991
2 43189  97.5800 249.6742 0013838  94.2826 265.9984 15.08524619374372
SALSAT                  
1 46495U 20068K   24351.18666476  .00012790  00000+0  62643-3 0  9995
2 46495  97.8406 315.9318 0014580  53.8105 306.4474 15.18215258231871
OOV-CUBE (TUBSAT-30)    
1 60240U 24128F   24350.73990078  .00005226  00000+0  44850-3 0  9994
2 60240  61.9978 332.2933 0029626   9.5035 350.6608 14.98389630 23796
